H1 CPF 01  gfz 2021 06 13 00  6641 terrasarx 
H2 0702601  6201 31698    2021 06 13 00 59 42 2021 06 18 00 00 42   120 1 1  0 0 0
H9
10 0 59380  29502.000000  0   -5226880.424   2793806.666  -3519996.966
10 0 59380  29622.000000  0   -5493601.292   3154618.202  -2715753.246
10 0 59380  29742.000000  0   -5658682.280   3464210.795  -1863825.916
10 0 59380  29862.000000  0   -5720112.674   3715334.413   -979143.143
10 0 59380  29982.000000  0   -5677819.229   3901741.308    -77239.893
10 0 59380  30102.000000  0   -5533657.084   4018335.786    826020.658
10 0 59380  30222.000000  0   -5291360.586   4061301.429   1714735.704
10 0 59380  30342.000000  0   -4956454.707   4028202.082   2573251.879
10 0 59380  30462.000000  0   -4536131.584   3918055.454   3386448.673
10 0 59380  30582.000000  0   -4039094.458   3731376.935   4140012.217
10 0 59380  30702.000000  0   -3475372.945   3470191.359   4820691.181
10 0 59380  30822.000000  0   -2856115.244   3138014.963   5416531.174
10 0 59380  30942.000000  0   -2193361.277   2739806.632   5917083.090
10 0 59380  31062.000000  0   -1499803.347   2281890.541   6313582.464
10 0 59380  31182.000000  0    -788538.381   1771851.405   6599096.479
10 0 59380  31302.000000  0     -72819.869   1218405.942   6768637.569
10 0 59380  31422.000000  0     634188.751    631252.126   6819245.879
10 0 59380  31542.000000  0    1319655.541     20899.108   6750037.167
10 0 59380  31662.000000  0    1971311.734   -601520.001   6562217.688
10 0 59380  31782.000000  0    2577670.757  -1224450.762   6259065.102
10 0 59380  31902.000000  0    3128231.613  -1836130.909   5845875.676
10 0 59380  32022.000000  0    3613663.903  -2424812.906   5329877.366
10 0 59380  32142.000000  0    4025969.928  -2978990.375   4720109.018
10 0 59380  32262.000000  0    4358621.496  -3487625.528   4027267.842
10 0 59380  32382.000000  0    4606668.724  -3940372.846   3263525.614
10 0 59380  32502.000000  0    4766818.648  -4327793.756   2442316.142
10 0 59380  32622.000000  0    4837480.710  -4641556.505   1578096.370
10 0 59380  32742.000000  0    4818777.044  -4874616.554    686087.094
10 0 59380  32862.000000  0    4712517.891  -5021373.686   -218001.995
10 0 59380  32982.000000  0    4522142.790  -5077800.549  -1118257.048
10 0 59380  33102.000000  0    4252629.392  -5041539.731  -1998849.497
10 0 59380  33222.000000  0    3910370.637  -4911966.596  -2844322.069
10 0 59380  33342.000000  0    3503025.135  -4690216.695  -3639865.630
10 0 59380  33462.000000  0    3039344.577  -4379177.963  -4371580.460
10 0 59380  33582.000000  0    2528983.201  -3983448.188  -5026718.181
10 0 59380  33702.000000  0    1982293.276  -3509258.405  -5593897.728
10 0 59380  33822.000000  0    1410113.978  -2964367.484  -6063292.814
10 0 59380  33942.000000  0     823556.820  -2357930.356  -6426792.060
10 0 59380  34062.000000  0     233790.888  -1700340.239  -6678128.960
10 0 59380  34182.000000  0    -348166.737  -1003048.595  -6812979.098
10 0 59380  34302.000000  0    -911651.475   -278367.114  -6829025.726
10 0 59380  34422.000000  0   -1446541.693    460745.228  -6725994.683
10 0 59380  34542.000000  0   -1943436.431   1200907.812  -6505658.006
10 0 59380  34662.000000  0   -2393816.616   1928554.611  -6171806.716
10 0 59380  34782.000000  0   -2790189.168   2630176.731  -5730193.195
10 0 59380  34902.000000  0   -3126212.128   3292570.083  -5188442.856
10 0 59380  35022.000000  0   -3396798.927   3903083.571  -4555934.483
10 0 59380  35142.000000  0   -3598199.626   4449863.430  -3843648.289
10 0 59380  35262.000000  0   -3728055.331   4922087.546  -3063983.397
10 0 59380  35382.000000  0   -3785425.411   5310184.912  -2230549.294
10 0 59380  35502.000000  0   -3770788.419   5606036.944  -1357932.680
10 0 59380  35622.000000  0   -3686014.048   5803155.432   -461441.655
10 0 59380  35742.000000  0   -3534305.734   5896828.952    443167.639
10 0 59380  35862.000000  0   -3320117.522   5884235.854   1339974.668
10 0 59380  35982.000000  0   -3049043.287   5764520.231   2213185.183
10 0 59380  36102.000000  0   -2727681.568   5538826.229   3047419.736
10 0 59380  36222.000000  0   -2363481.546   5210290.720   3827991.559
10 0 59380  36342.000000  0   -1964574.285   4783996.984   4541169.704
10 0 59380  36462.000000  0   -1539593.273   4266890.054   5174422.753
10 0 59380  36582.000000  0   -1097487.876   3667655.948   5716639.064
10 0 59380  36702.000000  0    -647335.156   2996567.131   6158318.010
10 0 59380  36822.000000  0    -198154.305   2265298.953   6491730.827
10 0 59380  36942.000000  0     241272.666   1486722.017   6711049.507
10 0 59380  37062.000000  0     662571.776    674672.382   6812443.557
10 0 59380  37182.000000  0    1057935.557   -156295.129   6794141.574
10 0 59380  37302.000000  0    1420266.703   -991166.616   6656461.100
10 0 59380  37422.000000  0    1743305.288  -1814740.081   6401803.897
10 0 59380  37542.000000  0    2021737.345  -2611901.682   6034617.290
10 0 59380  37662.000000  0    2251283.319  -3367904.582   5561321.615
10 0 59380  37782.000000  0    2428764.784  -4068644.648   4990203.141
10 0 59380  37902.000000  0    2552147.784  -4700927.537   4331274.661
10 0 59380  38022.000000  0    2620563.768  -5252723.829   3596104.953
10 0 59380  38142.000000  0    2634305.831  -5713405.941   2797617.750
10 0 59380  38262.000000  0    2594799.710  -6073961.755   1949864.076
10 0 59380  38382.000000  0    2504550.625  -6327177.246   1067771.000
10 0 59380  38502.000000  0    2367067.885  -6467785.650    166874.418
10 0 59380  38622.000000  0    2186768.760  -6492581.028   -736962.069
10 0 59380  38742.000000  0    1968862.762  -6400489.199  -1627837.230
10 0 59380  38862.000000  0    1719218.779  -6192594.323  -2490100.353
10 0 59380  38982.000000  0    1444220.112  -5872123.361  -3308633.820
10 0 59380  39102.000000  0    1150611.243  -5444383.881  -4069121.485
10 0 59380  39222.000000  0     845341.887  -4916664.666  -4758298.118
10 0 59380  39342.000000  0     535409.959  -4298099.356  -5364176.465
10 0 59380  39462.000000  0     227707.958  -3599497.570  -5876248.277
10 0 59380  39582.000000  0     -71124.053  -2833146.961  -6285656.563
10 0 59380  39702.000000  0    -354835.749  -2012591.558  -6585337.248
10 0 59380  39822.000000  0    -617691.919  -1152390.748  -6770129.751
10 0 59380  39942.000000  0    -854583.566   -267863.044  -6836857.038
10 0 59380  40062.000000  0   -1061123.395    625182.497  -6784373.666
10 0 59380  40182.000000  0   -1233724.820   1510721.441  -6613582.446
10 0 59380  40302.000000  0   -1369662.853   2372794.210  -6327420.363
10 0 59380  40422.000000  0   -1467116.362   3195786.784  -5930814.649
10 0 59380  40542.000000  0   -1525191.755   3964710.687  -5430607.499
10 0 59380  40662.000000  0   -1543926.649   4665475.482  -4835449.025
10 0 59380  40782.000000  0   -1524274.340   5285151.246  -4155659.247
10 0 59380  40902.000000  0   -1468068.404   5812214.318  -3403058.392
10 0 59380  41022.000000  0   -1377967.526   6236770.420  -2590768.856
10 0 59380  41142.000000  0   -1257382.172   6550751.874  -1732991.890
10 0 59380  41262.000000  0   -1110384.041   6748082.881   -844759.854
10 0 59380  41382.000000  0    -941600.527   6824807.535     58328.949
10 0 59380  41502.000000  0    -756096.056   6779178.987    960389.964
10 0 59380  41622.000000  0    -559243.553   6611703.641   1845541.890
10 0 59380  41742.000000  0    -356589.514   6325136.809   2698196.571
10 0 59380  41862.000000  0    -153716.429   5924433.286   3503340.375
10 0 59380  41982.000000  0      43893.796   5416656.390   4246803.493
10 0 59380  42102.000000  0     230992.400   4810847.124   4915515.938
10 0 59380  42222.000000  0     402690.185   4117848.129   5497738.573
10 0 59380  42342.000000  0     554573.193   3350101.321   5983263.398
10 0 59380  42462.000000  0     682805.519   2521416.747   6363589.840
10 0 59380  42582.000000  0     784216.698   1646717.367   6632067.303
10 0 59380  42702.000000  0     856373.040    741766.178   6784005.673
10 0 59380  42822.000000  0     897631.255   -177119.289   6816751.324
10 0 59380  42942.000000  0     907173.565  -1093359.846   6729731.292
10 0 59380  43062.000000  0     885023.573  -1990413.766   6524463.536
10 0 59380  43182.000000  0     832042.682  -2852075.261   6204532.646
10 0 59380  43302.000000  0     749906.923  -3662769.406   5775530.737
10 0 59380  43422.000000  0     641064.658  -4407835.176   5244962.947
10 0 59380  43542.000000  0     508677.399  -5073793.581   4622122.693
10 0 59380  43662.000000  0     356543.544  -5648599.037   3917936.097
10 0 59380  43782.000000  0     189005.512  -6121867.904   3144774.006
10 0 59380  43902.000000  0      10842.948  -6485076.673   2316235.307
10 0 59380  44022.000000  0    -172845.784  -6731724.503   1446905.434
10 0 59380  44142.000000  0    -356770.564  -6857458.652    552096.141
10 0 59380  44262.000000  0    -535582.578  -6860158.015   -352433.077
10 0 59380  44382.000000  0    -704009.220  -6739969.180  -1250762.678
10 0 59380  44502.000000  0    -856986.873  -6499296.176  -2127101.892
10 0 59380  44622.000000  0    -989788.902  -6142746.265  -2966072.856
10 0 59380  44742.000000  0   -1098145.937  -5677032.709  -3752985.616
10 0 59380  44862.000000  0   -1178355.123  -5110836.218  -4474097.483
10 0 59380  44982.000000  0   -1227375.466  -4454629.945  -5116850.188
10 0 59380  45102.000000  0   -1242907.696  -3720474.529  -5670081.917
10 0 59380  45222.000000  0   -1223456.855  -2921787.640  -6124212.195
10 0 59380  45342.000000  0   -1168376.644  -2073092.671  -6471397.307
10 0 59380  45462.000000  0   -1077895.097  -1189752.104  -6705653.989
10 0 59380  45582.000000  0    -953121.698   -287691.279  -6822952.043
10 0 59380  45702.000000  0    -796035.387    616884.280  -6821275.845
10 0 59380  45822.000000  0    -609453.187   1507772.641  -6700654.316
10 0 59380  45942.000000  0    -396981.239   2369057.973  -6463160.401
99
